start=new Date('2022-07-02T00:00:00.000Z').valueOf();
sats=[{"GP_ID":"207209187","REF_FRAME":"TEME","APOAPSIS":"548.156","CENTER_NAME":"EARTH","DECAY_DATE":null,"MEAN_MOTION_DOT":"-0.00000066","INCLINATION":"53.0540","MEAN_MOTION_DDOT":"0.0000000000000","RA_OF_ASC_NODE":"279.4359","TLE_LINE2":"2 48379  53.0540 279.4359 0001354  73.2730 286.8407 15.06398345 64115","COUNTRY_CODE":"US","PERIAPSIS":"546.281","LAUNCH_DATE":"2021-05-04","ARG_OF_PERICENTER":"73.2730","CLASSIFICATION_TYPE":"U","SITE":"AFETR","OBJECT_NAME":"STARLINK-2612","RCS_SIZE":"LARGE","BSTAR":"0.00001443100000","REV_AT_EPOCH":"6411","NORAD_CAT_ID":"48379","PERIOD":"95.592","EPHEMERIS_TYPE":"0","OBJECT_TYPE":"PAYLOAD","EPOCH":"2022-07-01T11:48:15.001920","SEMIMAJOR_AXIS":"6925.354","ECCENTRICITY":"0.00013540","OBJECT_ID":"2021-038AC","MEAN_ANOMALY":"286.8407","ELEMENT_SET_NO":"999","MEAN_ELEMENT_THEORY":"SGP4","TIME_SYSTEM":"UTC","TLE_LINE1":"1 48379U 21038AC  22182.49184030 -.00000066  00000-0  14431-4 0  9999","FILE":"3506285","MEAN_MOTION":"15.06398345"},{"MEAN_MOTION_DOT":"0.00001672","GP_ID":"207185498","DECAY_DATE":null,"CENTER_NAME":"EARTH","REF_FRAME":"TEME","APOAPSIS":"548.226","COUNTRY_CODE":"US","TLE_LINE2":"2 48380  53.0546 279.3185 0001399  51.6612 308.4503 15.06385918 64702","LAUNCH_DATE":"2021-05-04","PERIAPSIS":"546.288","RA_OF_ASC_NODE":"279.3185","MEAN_MOTION_DDOT":"0.0000000000000","INCLINATION":"53.0546","ARG_OF_PERICENTER":"51.6612","REV_AT_EPOCH":"6470","BSTAR":"0.00013117000000","EPHEMERIS_TYPE":"0","NORAD_CAT_ID":"48380","PERIOD":"95.593","SITE":"AFETR","OBJECT_NAME":"STARLINK-2614","RCS_SIZE":"LARGE","CLASSIFICATION_TYPE":"U","OBJECT_TYPE":"PAYLOAD","ELEMENT_SET_NO":"999","MEAN_ANOMALY":"308.4503","EPOCH":"2022-07-01T12:24:03.913344","OBJECT_ID":"2021-038AD","ECCENTRICITY":"0.00013990","SEMIMAJOR_AXIS":"6925.392","TIME_SYSTEM":"UTC","TLE_LINE1":"1 48380U 21038AD  22182.51671196  .00001672  00000-0  13117-3 0  9990","MEAN_ELEMENT_THEORY":"SGP4","MEAN_MOTION":"15.06385918","FILE":"3506200"},{"TLE_LINE1":"1 48381U 21038AE  22182.55448982 -.00000753  00000-0 -31640-4 0  9993","TIME_SYSTEM":"UTC","MEAN_ELEMENT_THEORY":"SGP4","MEAN_MOTION":"15.06401864","FILE":"3506285","OBJECT_TYPE":"PAYLOAD","MEAN_ANOMALY":"297.3299","ELEMENT_SET_NO":"999","SEMIMAJOR_AXIS":"6925.343","ECCENTRICITY":"0.00016040","OBJECT_ID":"2021-038AE","EPOCH":"2022-07-01T13:18:27.920448","ARG_OF_PERICENTER":"62.7853","PERIOD":"95.592","NORAD_CAT_ID":"48381","EPHEMERIS_TYPE":"0","BSTAR":"-0.00003164000000","REV_AT_EPOCH":"6412","CLASSIFICATION_TYPE":"U","SITE":"AFETR","OBJECT_NAME":"STARLINK-2630","RCS_SIZE":"LARGE","MEAN_MOTION_DOT":"-0.00000753","REF_FRAME":"TEME","APOAPSIS":"548.319","DECAY_DATE":null,"CENTER_NAME":"EARTH","GP_ID":"207208186","PERIAPSIS":"546.097","LAUNCH_DATE":"2021-05-04","TLE_LINE2":"2 48381  53.0553 279.1467 0001604  62.7853 297.3299 15.06401864 64124","COUNTRY_CODE":"US","INCLINATION":"53.0553","MEAN_MOTION_DDOT":"0.0000000000000","RA_OF_ASC_NODE":"279.1467"},{"MEAN_MOTION":"15.06404184","FILE":"3506285","TLE_LINE1":"1 48382U 21038AF  22182.55080916  .00001861  00000-0  14378-3 0  9990","TIME_SYSTEM":"UTC","MEAN_ELEMENT_THEORY":"SGP4","MEAN_ANOMALY":"304.8757","ELEMENT_SET_NO":"999","SEMIMAJOR_AXIS":"6925.336","ECCENTRICITY":"0.00017840","OBJECT_ID":"2021-038AF","EPOCH":"2022-07-01T13:13:09.911424","OBJECT_TYPE":"PAYLOAD","PERIOD":"95.592","NORAD_CAT_ID":"48382","EPHEMERIS_TYPE":"0","REV_AT_EPOCH":"6412","BSTAR":"0.00014378000000","CLASSIFICATION_TYPE":"U","SITE":"AFETR","OBJECT_NAME":"STARLINK-2585","RCS_SIZE":"LARGE","ARG_OF_PERICENTER":"55.2399","PERIAPSIS":"545.965","LAUNCH_DATE":"2021-05-04","COUNTRY_CODE":"US","TLE_LINE2":"2 48382  53.0551 279.1764 0001784  55.2399 304.8757 15.06404184 64125","INCLINATION":"53.0551","MEAN_MOTION_DDOT":"0.0000000000000","RA_OF_ASC_NODE":"279.1764","MEAN_MOTION_DOT":"0.00001861","APOAPSIS":"548.436","REF_FRAME":"TEME","CENTER_NAME":"EARTH","DECAY_DATE":null,"GP_ID":"207208436"},{"ARG_OF_PERICENTER":"66.1529","EPHEMERIS_TYPE":"0","NORAD_CAT_ID":"48383","PERIOD":"95.592","BSTAR":"0.00012538000000","REV_AT_EPOCH":"6534","OBJECT_NAME":"STARLINK-2599","SITE":"AFETR","RCS_SIZE":"LARGE","CLASSIFICATION_TYPE":"U","MEAN_MOTION_DOT":"0.00001587","CENTER_NAME":"EARTH","DECAY_DATE":null,"APOAPSIS":"548.112","REF_FRAME":"TEME","GP_ID":"207209687","LAUNCH_DATE":"2021-05-04","PERIAPSIS":"546.319","TLE_LINE2":"2 48383  53.0558 279.1891 0001295  66.1529 293.9596 15.06399352 65341","COUNTRY_CODE":"US","MEAN_MOTION_DDOT":"0.0000000000000","RA_OF_ASC_NODE":"279.1891","INCLINATION":"53.0558","TLE_LINE1":"1 48383U 21038AG  22182.54712045  .00001587  00000-0  12538-3 0  9996","TIME_SYSTEM":"UTC","MEAN_ELEMENT_THEORY":"SGP4","MEAN_MOTION":"15.06399352","FILE":"3506285","OBJECT_TYPE":"PAYLOAD","ELEMENT_SET_NO":"999","MEAN_ANOMALY":"293.9596","OBJECT_ID":"2021-038AG","ECCENTRICITY":"0.00012950","SEMIMAJOR_AXIS":"6925.351","EPOCH":"2022-07-01T13:07:51.206880"},{"FILE":"3506285","MEAN_MOTION":"15.06388565","MEAN_ELEMENT_THEORY":"SGP4","TIME_SYSTEM":"UTC","TLE_LINE1":"1 48384U 21038AH  22182.54343607 -.00000338  00000-0 -37776-5 0  9999","EPOCH":"2022-07-01T13:02:32.876448","OBJECT_ID":"2021-038AH","ECCENTRICITY":"0.00016410","SEMIMAJOR_AXIS":"6925.384","ELEMENT_SET_NO":"999","MEAN_ANOMALY":"297.9562","OBJECT_TYPE":"PAYLOAD","SITE":"AFETR","RCS_SIZE":"LARGE","OBJECT_NAME":"STARLINK-2601","CLASSIFICATION_TYPE":"U","BSTAR":"-0.00000377760000","REV_AT_EPOCH":"6534","EPHEMERIS_TYPE":"0","PERIOD":"95.593","NORAD_CAT_ID":"48384","ARG_OF_PERICENTER":"62.1593","MEAN_MOTION_DDOT":"0.0000000000000","RA_OF_ASC_NODE":"279.2026","INCLINATION":"53.0552","COUNTRY_CODE":"US","TLE_LINE2":"2 48384  53.0552 279.2026 0001641  62.1593 297.9562 15.06388565 65340","LAUNCH_DATE":"2021-05-04","PERIAPSIS":"546.112","GP_ID":"207209938","CENTER_NAME":"EARTH","DECAY_DATE":null,"APOAPSIS":"548.385","REF_FRAME":"TEME","MEAN_MOTION_DOT":"-0.00000338"},{"FILE":"3506285","MEAN_MOTION":"15.06407935","MEAN_ELEMENT_THEORY":"SGP4","TIME_SYSTEM":"UTC","TLE_LINE1":"1 48385U 21038AJ  22182.53974815  .00001851  00000-0  14308-3 0  9993","EPOCH":"2022-07-01T12:57:14.240160","SEMIMAJOR_AXIS":"6925.324","ECCENTRICITY":"0.00013470","OBJECT_ID":"2021-038AJ","MEAN_ANOMALY":"297.9769","ELEMENT_SET_NO":"999","OBJECT_TYPE":"PAYLOAD","CLASSIFICATION_TYPE":"U","OBJECT_NAME":"STARLINK-2598","SITE":"AFETR","RCS_SIZE":"LARGE","BSTAR":"0.00014308000000","REV_AT_EPOCH":"6534","NORAD_CAT_ID":"48385","PERIOD":"95.592","EPHEMERIS_TYPE":"0","ARG_OF_PERICENTER":"62.1357","INCLINATION":"53.0560","RA_OF_ASC_NODE":"279.2129","MEAN_MOTION_DDOT":"0.0000000000000","COUNTRY_CODE":"US","TLE_LINE2":"2 48385  53.0560 279.2129 0001347  62.1357 297.9769 15.06407935 65347","PERIAPSIS":"546.256","LAUNCH_DATE":"2021-05-04","GP_ID":"207208687","REF_FRAME":"TEME","APOAPSIS":"548.122","DECAY_DATE":null,"CENTER_NAME":"EARTH","MEAN_MOTION_DOT":"0.00001851"},{"OBJECT_TYPE":"PAYLOAD","EPOCH":"2022-07-01T12:39:20.321856","ECCENTRICITY":"0.00014280","SEMIMAJOR_AXIS":"6925.362","OBJECT_ID":"2021-038AK","MEAN_ANOMALY":"297.3945","ELEMENT_SET_NO":"999","MEAN_ELEMENT_THEORY":"SGP4","TIME_SYSTEM":"UTC","TLE_LINE1":"1 48386U 21038AK  22182.52731854 -.00000315  00000-0 -22594-5 0  9991","FILE":"3506285","MEAN_MOTION":"15.06395684","GP_ID":"207208937","REF_FRAME":"TEME","APOAPSIS":"548.216","CENTER_NAME":"EARTH","DECAY_DATE":null,"MEAN_MOTION_DOT":"-0.00000315","INCLINATION":"53.0554","MEAN_MOTION_DDOT":"0.0000000000000","RA_OF_ASC_NODE":"274.2795","TLE_LINE2":"2 48386  53.0554 274.2795 0001428  62.7189 297.3945 15.06395684 64182","COUNTRY_CODE":"US","PERIAPSIS":"546.238","LAUNCH_DATE":"2021-05-04","ARG_OF_PERICENTER":"62.7189","CLASSIFICATION_TYPE":"U","SITE":"AFETR","RCS_SIZE":"LARGE","OBJECT_NAME":"STARLINK-2606","REV_AT_EPOCH":"6418","BSTAR":"-0.00000225940000","NORAD_CAT_ID":"48386","PERIOD":"95.592","EPHEMERIS_TYPE":"0"},{"SITE":"AFETR","OBJECT_NAME":"STARLINK-2600","RCS_SIZE":"MEDIUM","CLASSIFICATION_TYPE":"U","REV_AT_EPOCH":"6419","BSTAR":"-0.00001199400000","EPHEMERIS_TYPE":"0","PERIOD":"95.593","NORAD_CAT_ID":"48387","ARG_OF_PERICENTER":"60.2988","MEAN_MOTION_DDOT":"0.0000000000000","RA_OF_ASC_NODE":"274.1096","INCLINATION":"53.0560","TLE_LINE2":"2 48387  53.0560 274.1096 0001669  60.2988 299.8167 15.06393983 64194","COUNTRY_CODE":"US","LAUNCH_DATE":"2021-05-04","PERIAPSIS":"546.076","GP_ID":"207209188","DECAY_DATE":null,"CENTER_NAME":"EARTH","REF_FRAME":"TEME","APOAPSIS":"548.388","MEAN_MOTION_DOT":"-0.00000460","FILE":"3506285","MEAN_MOTION":"15.06393983","MEAN_ELEMENT_THEORY":"SGP4","TIME_SYSTEM":"UTC","TLE_LINE1":"1 48387U 21038AL  22182.55680385 -.00000460  00000-0 -11994-4 0  9999","EPOCH":"2022-07-01T13:21:47.852640","OBJECT_ID":"2021-038AL","SEMIMAJOR_AXIS":"6925.367","ECCENTRICITY":"0.00016690","ELEMENT_SET_NO":"999","MEAN_ANOMALY":"299.8167","OBJECT_TYPE":"PAYLOAD"},{"MEAN_MOTION_DOT":"0.00001528","GP_ID":"207209439","CENTER_NAME":"EARTH","DECAY_DATE":null,"REF_FRAME":"TEME","APOAPSIS":"548.177","COUNTRY_CODE":"US","TLE_LINE2":"2 48388  53.0547 274.1582 0001355  71.1325 288.9810 15.06391841 64193","LAUNCH_DATE":"2021-05-04","PERIAPSIS":"546.300","RA_OF_ASC_NODE":"274.1582","MEAN_MOTION_DDOT":"0.0000000000000","INCLINATION":"53.0547","ARG_OF_PERICENTER":"71.1325","BSTAR":"0.00012148000000","REV_AT_EPOCH":"6419","EPHEMERIS_TYPE":"0","PERIOD":"95.593","NORAD_CAT_ID":"48388","RCS_SIZE":"LARGE","SITE":"AFETR","OBJECT_NAME":"STARLINK-2594","CLASSIFICATION_TYPE":"U","OBJECT_TYPE":"PAYLOAD","ELEMENT_SET_NO":"999","MEAN_ANOMALY":"288.9810","EPOCH":"2022-07-01T13:16:29.496288","OBJECT_ID":"2021-038AM","SEMIMAJOR_AXIS":"6925.374","ECCENTRICITY":"0.00013550","TIME_SYSTEM":"UTC","TLE_LINE1":"1 48388U 21038AM  22182.55311917  .00001528  00000-0  12148-3 0  9997","MEAN_ELEMENT_THEORY":"SGP4","MEAN_MOTION":"15.06391841","FILE":"3506285"}];
